SUOMI NPP               
1 37849U 11061A   21323.52126861  .00000017  00000-0  28964-4 0  9993
2 37849  98.7108 260.2133 0000814 102.2360  19.1725 14.19565523521408
